     2.11           N: GPS NAV DATA                         RINEX VERSION / TYPE
teqc  2019Feb25                         20221121 12:26:34UTCPGM / RUN BY / DATE
OSX ker:10.11.6|Core i5|gcc 4.3 -m64|OSX ker:10.10+|=+      COMMENT
    5.5879D-09  1.4901D-08 -5.9605D-08 -1.1921D-07          ION ALPHA
    7.7824D+04  3.2768D+04 -6.5536D+04 -2.6214D+05          ION BETA
    9.313225746155D-10-6.217248937901D-15   405504     1546 DELTA-UTC: A0,A1,T,W
                                                            END OF HEADER
 9 09  8 25 14  0  0.0 7.387390360236D-05 2.046363078989D-12 0.000000000000D+00
    4.400000000000D+01-4.571875000000D+01 4.061597753278D-09 1.845450743437D+00
   -2.643093466759D-06 2.072855434380D-02 9.754672646523D-06 5.153632940292D+03
    2.232000000000D+05 1.657754182816D-07 1.083453992562D+00-4.284083843231D-07
    9.772895784337D-01 1.969375000000D+02 1.507329897838D+00-7.591030482604D-09
    2.800116636097D-10 1.000000000000D+00 1.546000000000D+03 0.000000000000D+00
    2.000000000000D+00 0.000000000000D+00-5.587935447693D-09 4.400000000000D+01
    2.160180000000D+05 4.000000000000D+00
22 09  8 25 14  0  0.0 1.924983225763D-04-6.821210263297D-13 0.000000000000D+00
    1.000000000000D+02 6.006250000000D+01 5.198073663490D-09-4.536220710429D-01
    3.173947334290D-06 5.301557015628D-03 3.792345523834D-06 5.153659276962D+03
    2.232000000000D+05-6.519258022308D-08-9.445234362666D-01 6.891787052155D-08
    9.385183404160D-01 2.968437500000D+02-1.892326253567D+00-8.654646215040D-09
    1.760787629587D-10 1.000000000000D+00 1.546000000000D+03 0.000000000000D+00
    2.000000000000D+00 0.000000000000D+00-1.769512891769D-08 1.000000000000D+02
    2.160180000000D+05 4.000000000000D+00
27 09  8 25 14  0  0.0 7.720431312919D-05 3.183231456205D-12 0.000000000000D+00
    1.400000000000D+01-2.721875000000D+01 4.235533569831D-09-1.134851857924D+00
   -1.119449734688D-06 2.132072497625D-02 1.022033393383D-05 5.153752042770D+03
    2.232000000000D+05-3.650784492493D-07 1.059192872823D+00 3.594905138016D-07
    9.753469431837D-01 1.959062500000D+02-1.555049580457D+00-8.067836057755D-09
    2.907263956356D-10 1.000000000000D+00 1.546000000000D+03 0.000000000000D+00
    2.000000000000D+00 0.000000000000D+00-4.190951585770D-09 1.400000000000D+01
    2.160180000000D+05 4.000000000000D+00
12 09  8 25 14  0  0.0-2.290410920978D-04 5.798028723802D-12 0.000000000000D+00
    5.800000000000D+01-1.365625000000D+01 4.682337895311D-09 2.779751196984D+00
   -6.835907697678D-07 3.126134746708D-03 6.141141057014D-06 5.153585380554D+03
    2.232000000000D+05 0.000000000000D+00 2.169835335403D+00 1.117587089539D-07
    9.677527847537D-01 2.640312500000D+02-6.043382801323D-01-8.042477858627D-09
    1.496490906282D-10 1.000000000000D+00 1.546000000000D+03 0.000000000000D+00
    2.000000000000D+00 0.000000000000D+00-1.164153218269D-08 5.800000000000D+01
    2.160180000000D+05 4.000000000000D+00
30 09  8 25 14  0  0.0 1.715221442282D-04 2.955857780762D-12 0.000000000000D+00
    1.620000000000D+02-1.093750000000D+01 5.127356432119D-09 2.825279397599D-01
   -4.637986421585D-07 1.185163692571D-02 6.210058927536D-06 5.153672815323D+03
    2.232000000000D+05-1.098960638046D-07 2.120616749845D+00 2.421438694000D-08
    9.528412549200D-01 2.566562500000D+02 1.446053284621D+00-8.521069222450D-09
    1.396486740707D-10 1.000000000000D+00 1.546000000000D+03 0.000000000000D+00
    2.000000000000D+00 0.000000000000D+00-8.381903171539D-09 1.620000000000D+02
    2.160180000000D+05 4.000000000000D+00
32 09  8 25 14  0  0.0 2.087280154228D-04-6.821210263297D-12 0.000000000000D+00
    9.100000000000D+01 4.875000000000D+01 4.469114727996D-09-2.770160316296D+00
    2.562999725342D-06 1.325395598542D-02 3.147870302200D-06 5.153741235733D+03
    2.232000000000D+05 4.842877388000D-08-8.924339588280D-01 1.993030309677D-07
    9.625783250109D-01 3.122187500000D+02-1.128274412930D+00-8.049621013311D-09
    1.517920370333D-10 1.000000000000D+00 1.546000000000D+03 0.000000000000D+00
    2.800000000000D+00 0.000000000000D+00-3.259629011154D-09 9.100000000000D+01
    2.160180000000D+05 4.000000000000D+00
17 09  8 25 14  0  0.0 7.989350706339D-05 2.842170943040D-12 0.000000000000D+00
    5.500000000000D+01-3.075000000000D+01 4.586262464812D-09-7.582832064764D-01
   -1.760199666023D-06 4.620585823432D-03 8.860602974892D-06 5.153723812103D+03
    2.232000000000D+05 1.471489667892D-07-3.053860994094D+00 8.009374141693D-08
    9.602383436556D-01 2.116875000000D+02-2.638777178198D+00-7.999261772790D-09
   -4.660908431259D-10 1.000000000000D+00 1.546000000000D+03 0.000000000000D+00
    2.000000000000D+00 0.000000000000D+00-1.024454832077D-08 5.500000000000D+01
    2.160180000000D+05 4.000000000000D+00
31 09  8 25 14  0  0.0-6.487732753158D-05 1.136868377216D-13 0.000000000000D+00
    8.600000000000D+01-3.321875000000D+01 4.268392081377D-09 2.589557725131D+00
   -1.538544893265D-06 7.005881634541D-03 8.700415492058D-06 5.153775245667D+03
    2.232000000000D+05 1.993030309677D-07 1.115142016770D+00-1.862645149231D-09
    9.737316724269D-01 2.165625000000D+02-1.139444645346D+00-7.773895242512D-09
    1.871506527187D-10 1.000000000000D+00 1.546000000000D+03 0.000000000000D+00
    2.800000000000D+00 0.000000000000D+00-1.303851604462D-08 8.600000000000D+01
    2.160180000000D+05 4.000000000000D+00
20 09  8 25 14  0  0.0 7.389718666673D-05-9.094947017729D-13 0.000000000000D+00
    4.700000000000D+01 5.309375000000D+01 5.053781938875D-09 7.591739919240D-01
    2.600252628326D-06 3.835320705548D-03 3.730878233910D-06 5.153787315369D+03
    2.232000000000D+05-4.284083843231D-08-1.003912564782D+00 2.793967723846D-08
    9.405187594672D-01 2.934687500000D+02 1.329587884981D+00-8.593572242492D-09
    9.571827276455D-11 1.000000000000D+00 1.546000000000D+03 0.000000000000D+00
    2.000000000000D+00 0.000000000000D+00-6.519258022308D-09 4.700000000000D+01
    2.160780000000D+05 4.000000000000D+00
30 09  8 25 13 59 44.0 1.715319231153D-04 3.069544618484D-12 0.000000000000D+00
    3.000000000000D+00-1.093750000000D+01 5.127356432119D-09 2.801943381903D-01
   -4.637986421585D-07 1.185163774062D-02 6.210058927536D-06 5.153672832489D+03
    2.231840000000D+05-1.098960638046D-07 2.120616868342D+00 2.421438694000D-08
    9.528412519942D-01 2.566562500000D+02 1.446053049091D+00-8.521069222450D-09
    1.396486740707D-10 1.000000000000D+00 1.546000000000D+03 0.000000000000D+00
    2.000000000000D+00 0.000000000000D+00-8.381903171539D-09 3.000000000000D+00
    2.176680000000D+05 4.000000000000D+00
 4 09  8 25 13 59 44.0-2.355063334107D-04-1.705302565824D-11 0.000000000000D+00
    1.000000000000D+00 7.337500000000D+01 4.705195990299D-09 1.032211903106D+00
    4.049390554428D-06 8.693210547790D-03 9.428709745407D-06 5.153793386459D+03
    2.231840000000D+05-1.378357410431D-07-2.021111628052D+00 8.754432201386D-08
    9.399721518302D-01 1.881250000000D+02 5.041055262929D-01-8.120338244682D-09
   -9.750406143553D-11 1.000000000000D+00 1.546000000000D+03 0.000000000000D+00
    2.000000000000D+00 0.000000000000D+00-6.053596735001D-09 1.000000000000D+00
    2.196180000000D+05 4.000000000000D+00
31 09  8 25 13 59 44.0-6.487360224128D-05 1.136868377216D-13 0.000000000000D+00
    1.300000000000D+01-3.321875000000D+01 4.268392081377D-09 2.587224375183D+00
   -1.538544893265D-06 7.005883031525D-03 8.700415492058D-06 5.153775243759D+03
    2.231840000000D+05 1.993030309677D-07 1.115142141118D+00-1.862645149231D-09
    9.737316885190D-01 2.165625000000D+02-1.139444876487D+00-7.773895242512D-09
    1.871506527187D-10 1.000000000000D+00 1.546000000000D+03 0.000000000000D+00
    2.000000000000D+00 0.000000000000D+00-1.303851604462D-08 1.300000000000D+01
    2.209560000000D+05 4.000000000000D+00
29 09  8 25 13 59 44.0 5.173729732633D-05 3.296918293927D-12 0.000000000000D+00
    1.300000000000D+01-2.996875000000D+01 4.608763402066D-09 1.827338689705D+00
   -1.674517989159D-06 3.186231711879D-03 8.406117558479D-06 5.153619752884D+03
    2.231840000000D+05 1.080334186554D-07-3.045660592172D+00-1.862645149231D-08
    9.604909676641D-01 2.141250000000D+02-1.281108358323D+00-7.933187591963D-09
   -4.285892810353D-10 1.000000000000D+00 1.546000000000D+03 0.000000000000D+00
    2.000000000000D+00 0.000000000000D+00-8.847564458847D-09 1.300000000000D+01
    2.210880000000D+05 4.000000000000D+00
23 09  8 25 14  0  0.0 3.892132081091D-04-3.410605131648D-13 0.000000000000D+00
    9.900000000000D+01-5.181250000000D+01 4.344823836495D-09-1.906512190662D+00
   -2.888962626457D-06 6.442704121582D-03 6.573274731636D-06 5.153583200455D+03
    2.232000000000D+05-6.146728992462D-08 7.536686961835D-02-1.545995473862D-07
    9.702051079771D-01 2.635000000000D+02 2.950229148635D+00-8.078193632047D-09
   -5.678807973718D-11 1.000000000000D+00 1.546000000000D+03 0.000000000000D+00
    2.000000000000D+00 0.000000000000D+00-2.002343535423D-08 9.900000000000D+01
    2.220480000000D+05 4.000000000000D+00
 2 09  8 25 14  0  0.0 1.676185056567D-04 2.501110429876D-12 0.000000000000D+00
    1.700000000000D+01 7.731250000000D+01 4.596977196838D-09-1.821739341499D+00
    3.997236490250D-06 9.066322934814D-03 1.016631722450D-05 5.153704931259D+03
    2.232000000000D+05-1.136213541031D-07-2.039377591005D+00-1.080334186554D-07
    9.407886225024D-01 1.737187500000D+02 2.885272191945D+00-8.050335328780D-09
    1.067901625246D-10 1.000000000000D+00 1.546000000000D+03 0.000000000000D+00
    2.000000000000D+00 0.000000000000D+00-1.722946763039D-08 1.700000000000D+01
    2.221380000000D+05 4.000000000000D+00
